#dP2022 10 17  0  0  0.00000000      97 __u+U IGS14 FIT  IAC
## 2232  86400.00000000   900.00000000 59869 0.0000000000000
+  118   C06C07C08C09C10C11C12C13C14C16C19C20C21C22C23C24C25
+        C26C27C28C29C30C32C33C34C35C36C37C38C39C40C41C42C43
+        C44C45C46E01E02E03E04E05E07E08E09E10E11E12E13E14E15
+        E18E19E21E24E25E26E27E30E31E33E34E36G01G02G03G04G05
+        G06G07G08G09G10G11G12G13G14G15G16G17G18G19G20G21G22
+        G23G24G25G26G27G28G29G30G31G32J02J03J04R01R02R03R04
+        R05R07R08R09R11R12R13R14R15R17R18R19R20R21R22R24  0
++         7  7  8  7  7  7  6  7  7  7  5  5  6  6  5  6  6
++         6  6  6  5  6  5  6  6  6  6  6  7  6  6  6  6  6
++         6  6  6  4  4  4  4  4  5  4  4  4  4  4  4  5  4
++         5  4  4  4  4  4  5  4  4  4  4  4  3  3  3  3  3
++         3  3  3  3  3  3  3  3  3  3  3  3  3  4  3  3  3
++         3  4  3  3  3  4  3  4  3  3  9  9 10  7  6  6  6
++         6  6  6  6  6  6  7  6  6  6  6  7  7  6  7  6  0
%c M  cc GPS ccc cccc cccc cccc cccc ccccc ccccc ccccc ccccc
%c cc cc ccc ccc cccc cccc cccc cccc ccccc ccccc ccccc ccccc
%f  1.2500000  1.025000000  0.00000000000  0.000000000000000
%f  0.0000000  0.000000000  0.00000000000  0.000000000000000
%i    0    0    0    0      0      0      0      0         0
%i    0    0    0    0      0      0      0      0         0
/* INFORMATION & ANALYSIS CENTER (IAC)            FINAL DATA
/* S/V CLOCKS ARE ALIGNED TO GNSS TIME                      
/* G:C1WC2W R:C1PC2P E:C1XC5X C:C2IC6I J:C1CC2S             
/* PCV:IGS14_2218 OL/AL:FES2004  NONE     YN ORB:CoN CLK:CoN
*  2022 10 17  6 15  0.00000000
PC06  -1062.265459  32675.478493  26762.200066    892.754888
PC07 -15757.164027  27206.467182 -28112.571424   -287.889467
PC08 -15071.546925  39129.045686   3299.277394    495.850132
PC09   6392.719057  37135.762455  19806.897503   -832.561508
PC10  -7637.382812  27734.527351 -30643.509199     82.518255
PC11  21103.103843  15713.697843   9312.416601   -346.763320
PC12  12815.946987  23349.737666  -8242.347952   -478.989789
PC13  -8349.694783  39549.241971  11605.228294    109.015221
PC14  23804.857760   4686.363216  13752.319195    576.990620
PC16  -4680.288155  29731.963023  29821.276511    128.307272
PC19 -27345.369035   2097.193266  -5182.934874   -894.682937
PC20 -17997.974315  -9577.876623 -19062.749210    862.326865
PC21  -2967.755337  16330.259599  22441.580399   -620.694249
PC22 -21377.393461  13054.038428  12313.993783   -846.279575
PC23  15506.080465 -20109.303869 -11573.967597   -595.521759
PC24   8247.988489  18619.643553 -19073.233458   -651.250965
PC25  17203.948588  -2710.070316 -21814.723805     10.887327
PC26  -3526.728016  26928.346435  -6342.785659    -22.621412
PC27  -5466.874646 -22610.475818  15393.197312     37.139006
PC28  10511.779479 -12073.513805  22863.990096     25.223016
PC29 -21490.292769  -5819.371721 -16830.291449     27.889936
PC30 -19191.871819 -20246.142931   -257.236245      0.557175
PC32   2934.244022 -16366.995360 -22404.962620   -756.067855
PC33  27306.077214  -2165.974609   5299.092661   -933.204574
PC34  19691.482884  19738.380238   1362.449760     18.500947
PC35 -11338.873748  11265.307398 -22881.178983     45.521247
PC36 -17145.406222   1580.788595  21984.961628   -725.767862
PC37   5080.676663 -26973.342333   5131.727920   -534.160686
PC38 -18565.132607  37464.951201  -4594.280588     31.639355
PC39  -7513.271559  26358.828931  32108.837401     -0.652812
PC40 -22520.279676  20648.662228 -29151.194537     -6.198494
PC41  21729.504386 -12901.012059 -11798.916333   -181.074530
PC42  16910.031508  10285.483505  19700.330321   -489.027391
PC43  21722.030039   6554.932471  16250.356603     20.005192
PC44   6027.893771  22430.525462 -15496.176027     84.095462
PC45 -15325.324154  20368.545689  11331.631541    -10.797222
PC46  -9252.164515 -17146.610698  19997.143785     -6.826924
PE01  24758.354563  -9694.193311 -13008.935608   -547.978930
PE02 -24769.121089   9826.159311  12874.177938    331.229323
PE03 -26854.817913    128.040487  12450.766592   -610.559539
PE04  12466.047983 -13169.426842 -23397.244522  -1138.379649
PE05 -25756.287508 -13272.828344  -6057.169586   -133.756627
PE07   9714.168012  18743.306591  20742.764537   -713.918345
PE08 -12352.077153  13085.914995  23496.650724   -616.722058
PE09  -9633.981851 -18608.363608 -20916.432511   -696.072162
PE10    812.826347 -27870.387507   9954.493264   -484.239990
PE11  -6102.678901 -28960.610959   -413.601948   1753.895823
PE12   7267.630283 -22473.438917  17836.146208   -226.567211
PE13   5625.596121  29054.553914   -446.319949    430.672986
PE14 -29115.178095  -9940.508911  -5297.075546     30.000461
PE15  -7309.541522  22291.787937 -18040.576707    713.537795
PE18  20779.241378  14014.282613  -3126.706841   -852.184167
PE19  27697.261855   1947.858510 -10267.546830  -4244.941847
PE21  16727.304594   6697.018840 -23479.776442   -763.906283
PE24   2468.941389 -20957.940953  20760.153447   -895.652370
PE25 -16498.745319  -6980.760611  23573.604133   -590.391330
PE26  15450.504913  17915.556057  17785.682942  -1736.513339
PE27  -1405.496812  20506.627737 -21286.607850   -417.270267
PE30 -19124.687763  21816.689990  -5831.898904   -922.787930
PE31  18528.340411 -22126.297512   6607.064060   -505.935480
PE33  15852.154975  -2423.776200  24883.594626   -454.779010
PE34 -15816.037540   2636.059982 -24885.737256     -9.871427
PE36 -15129.791592 -18721.120674 -17226.771925   -447.071946
PG01  13358.117660  -7562.941177  21311.173428    266.272144
PG02 -13707.083292   6340.799505 -21244.548732   -642.018065
PG03  23032.814987 -10922.623488   7138.526407   -365.265109
PG04  21173.768385  -2164.963572 -15950.443587   -102.271045
PG05 -20603.314150   1431.628363 -16942.024539   -100.701618
PG06  -6642.267433 -24916.722612  -6128.658626    493.442841
PG07   6872.834184 -21727.812728 -12799.438777    297.897517
PG08  25269.473003   4982.300844   7177.972739    -89.245444
PG09  11416.172379 -11470.263554 -21147.663014   -282.092778
PG10  -4064.778712  18608.582029  18527.848506     -7.844427
PG11 -12043.730891 -17563.642875 -15891.650430    -26.836386
PG12 -23742.707326   9162.486737   7147.915578   -293.192964
PG13 -23048.330935 -13356.056556    962.874038    407.526467
PG14   6640.584749 -19228.846387  17024.469227    -94.206381
PG15 -25648.677306  -2226.999569   6670.899613    -20.238921
PG16  17184.861190   5616.525494 -19887.900879   -526.309651
PG17  -2733.760996 -17054.463904  20599.766824    669.483029
PG18  -6147.643848  22797.406617 -12025.467023     11.843251
PG19 -13624.058432 -18351.077255  13510.900439    224.877520
PG20 -11641.704343 -10323.596846 -21508.604382    477.728836
PG21  15970.653591   2363.290611  21801.950228    157.877230
PG22  15685.610382  18095.950276  12095.537893    347.179016
PG23 -13879.855133  19961.342985  10523.095621     -1.034497
PG24 -15258.466191   3368.845864  21144.217878     96.726118
PG25 -19653.772855  17421.053846  -3060.182911    383.203208
PG26   8877.923991  13113.598380 -21396.553884    232.742460
PG27  22997.366073  13140.359009  -4141.719004    196.614653
PG28  -2194.049218 -16065.017449  21581.564676    327.965890
PG29 -13329.473047   9026.311750 -21183.934755   -560.238364
PG30   -664.089897 -26281.821918  -2544.099183   -537.207358
PG31   7427.496191  24158.005715  -7493.812901   -197.061842
PG32   6966.890147  17484.363906  18965.432892   -265.928242
PJ02 -34970.531623  23396.594507   2096.765376     -7.432487
PJ03 -20495.838490  22291.216271 -24734.787175     -3.025870
PJ04 -28129.235087  30615.613717  13462.721778    111.892655
PR01 -23909.368033   4693.541984   7555.239981     16.375890
PR02  -9238.678118  10217.335268  21487.717695    -23.020734
PR03  10086.678884   9888.033929  21292.350491     65.618652
PR04  23388.077150   4051.289844   9383.792684    161.468659
PR05  24022.591137  -3873.367639  -7699.915218    101.381505
PR07 -10771.037972  -9714.752076 -20936.897795     42.706713
PR08 -23458.391400  -3889.320907  -9138.011737    -67.660164
PR09  10434.933756 -23064.844609   2804.535295     82.471807
PR11 -10348.500964  -3760.188739  23022.358396     24.329934
PR12 -15546.512988  14250.771473  14364.670909     22.101469
PR13 -11371.096541  22799.477011  -1241.763262    -27.885873
PR14    138.601552  18125.673361 -17940.027387     24.203149
PR15  10901.903770   2917.715588 -22852.551099     93.166213
PR17  11593.650879  22435.847367  -3394.164840    569.811500
PR18  15737.145403  15336.682198  13006.766088     47.493716
PR19  12237.388664   1726.636209  22314.074274   -207.569321
PR20    398.511271 -16907.618489  19093.250686    -80.346812
PR21 -12223.469686 -22340.505489   1781.050105   -342.211686
PR22 -15338.884783 -15272.386436 -13462.936160     14.474623
PR24    237.939169  17545.779578 -18483.447175    120.840473
EOF
